CZ-2C R/B               
1 52794U 22058K   25334.73671634  .00029435  00000+0  54299-3 0  9992
2 52794  50.1898 104.7222 0046850 148.8667 211.5091 15.47610921194774
CZ-2C R/B               
1 54039U 22132E   25334.95340727  .00030980  00000+0  47866-3 0  9998
2 54039  97.2949 330.9368 0023965  95.4034 264.9954 15.53715452175005
GSLV R/B                
1 54149U 22138AN  25335.15064935  .00002814  00000+0  24698-3 0  9996
2 54149  87.3840 199.3540 0022959 144.0220 216.2562 14.96033735169197
XRISM                   
1 57800U 23137A   25335.00383751  .00006145  00000+0  36142-3 0  9995
2 57800  31.0006 201.3095 0007603 126.2801 233.8540 15.10172860122852
ACS3                    
1 59588U 24077B   25335.12332962  .00045657  00000+0  39516-1 0  9992
2 59588  97.2809 293.3219 0076246   1.9933 358.1518 13.84654408 80531
